41925,IRIDIUM 112,2017,100.4,860.0,+,86.39,Active,1,LEO,USA,USA,Commercial/Government,Communications,Falcon,1 41925U 17003J   25082.56846477  .00000340  00000+0  11449-3 0  9994,2 41925  86.3905 276.5790 0002220  90.6357 269.5094 14.34217663428686,14.34217663,0.000222,LEO
41926,IRIDIUM 111,2017,100.4,860.0,+,86.39,Active,1,LEO,USA,USA,Commercial/Government,Communications,Falcon,1 41926U 17003K   25082.62553310  .00000015  00000+0 -16515-5 0  9994,2 41926  86.3906 276.6157 0001895  87.1577 272.9836 14.34217808428670,14.34217808,0.0001895,LEO
42803,IRIDIUM 113,2017,100.4,860.0,+,86.4,Active,1,LEO,USA,USA,Commercial/Government,Communications,Falcon,1 42803U 17039A   25082.11710830  .00000231  00000+0  75397-4 0  9995,2 42803  86.4014 150.7221 0002546  95.9923 264.1563 14.34213899406533,14.34213899,0.0002546,LEO
42804,IRIDIUM 123,2017,100.4,860.0,+,86.41,Active,1,LEO,USA,USA,Commercial/Government,Communications,Falcon,1 42804U 17039B   25082.22836804  .00000108  00000+0  31540-4 0  9993,2 42804  86.4050 182.0939 0002138  91.9721 268.1720 14.34216980405315,14.3421698,0.0002138,LEO
42805,IRIDIUM 120,2017,100.4,860.0,+,86.4,Active,1,LEO,USA,USA,Commercial/Government,Communications,Falcon,1 42805U 17039C   25081.62239814  .00000015  00000+0 -18244-5 0  9990,2 42805  86.4004 150.7698 0001805  96.4299 263.7103 14.34216357406459,14.34216357,0.0001805,LEO
42806,IRIDIUM 115,2017,99.77,860.0,+,86.45,Active,1,LEO,USA,USA,Commercial/Government,Communications,Falcon,1 42806U 17039D   25082.19080198  .00001321  00000+0  38676-3 0  9992,2 42806  86.4542 150.5993 0002017  78.6559 281.4868 14.43280123409214,14.43280123,0.0002017,LEO
42807,IRIDIUM 118,2017,100.4,860.0,+,86.41,Active,1,LEO,USA,USA,Commercial/Government,Communications,Falcon,1 42807U 17039E   25082.53915271  .00000994  00000+0  34798-3 0  9996,2 42807  86.4050 181.9648 0002225  97.5720 262.5729 14.34220160405357,14.3422016,0.0002225,LEO
42808,IRIDIUM 117,2017,100.4,860.0,+,86.4,Active,1,LEO,USA,USA,Commercial/Government,Communications,Falcon,1 42808U 17039F   25082.55817887  .00001049  00000+0  36735-3 0  9998,2 42808  86.4047 181.9187 0002089  87.4080 272.7355 14.34217270405386,14.3421727,0.0002089,LEO
